NORAD_CAT_ID,OBJECT_NAME,OBJECT_TYPE,EPOCH,MEAN_MOTION,ECCENTRICITY,INCLINATION,RA_OF_ASC_NODE,ARG_OF_PERICENTER,MEAN_ANOMALY,BSTAR,MEAN_MOTION_DOT,MEAN_MOTION_DDOT,TLE_LINE0,TLE_LINE1,TLE_LINE2,SEMIMAJOR_AXIS,PERIOD,APOGEE,PERIGEE,DECAYED
53262.0,STARLINK-4085,PAYLOAD,2022-11-08 04:24:55,15.08862315,0.0001423,53.2156,259.7011,64.6496,295.4644,0.0013074,0.00020593,0.0,0 STARLINK-4085,1 53262U 22086W   22312.18397911  .00020593  00000-0  13074-2 0  9991,2 53262  53.2156 259.7011 0001423  64.6496 295.4644 15.08862315 17081,6917.812,95.436,540.6619999999998,538.693,0.0
53262.0,STARLINK-4085,PAYLOAD,2022-11-08 13:57:14,15.08874946,0.0001593,53.2157,257.9167,64.4605,295.6552,0.0011472,0.00018034,0.0,0 STARLINK-4085,1 53262U 22086W   22312.58141261  .00018034  00000-0  11472-2 0  9997,2 53262  53.2157 257.9167 0001593  64.4605 295.6552 15.08874946 17322,6917.774,95.435,540.741,538.5369999999998,0.0
53262.0,STARLINK-4085,PAYLOAD,2022-11-09 02:40:18,15.08851531,6.04e-05,53.2161,255.5382,52.5708,307.5339,0.00086117,0.00013449,0.0,0 STARLINK-4085,1 53262U 22086W   22313.11132690  .00013449  00000-0  86117-3 0  9997,2 53262  53.2161 255.5382 0000604  52.5708 307.5339 15.08851531 17224,6917.845,95.437,540.128,539.2919999999998,0.0
53262.0,STARLINK-4085,PAYLOAD,2022-11-09 05:51:05,15.08851079,0.0001197,53.216,254.9431,64.1059,296.0056,0.00068719,0.00010669,0.0,0 STARLINK-4085,1 53262U 22086W   22313.24380845  .00010669  00000-0  68719-3 0  9997,2 53262  53.2160 254.9431 0001197  64.1059 296.0056 15.08851079 17424,6917.847,95.437,540.54,538.883,0.0
53262.0,STARLINK-4085,PAYLOAD,2022-11-10 02:31:05,15.08834138,0.0001339,53.2165,251.0778,57.2211,302.891,0.00047779,7.323e-05,0.0,0 STARLINK-4085,1 53262U 22086W   22314.10492608  .00007323  00000-0  47779-3 0  9990,2 53262  53.2165 251.0778 0001339  57.2211 302.8910 15.08834138 17378,6917.898,95.438,540.69,538.837,0.0
53262.0,STARLINK-4085,PAYLOAD,2022-11-11 02:21:53,15.08834183,0.000147,53.217,246.6161,67.1283,292.9864,0.00011011,1.465e-05,0.0,0 STARLINK-4085,1 53262U 22086W   22315.09853654  .00001465  00000-0  11011-3 0  9992,2 53262  53.2170 246.6161 0001470  67.1283 292.9864 15.08834183 17529,6917.898,95.438,540.78,538.746,0.0
53262.0,STARLINK-4085,PAYLOAD,2022-11-11 05:32:40,15.08834089,0.0001582,53.2169,246.0244,69.6927,290.4235,-3.0457e-05,-7.73e-06,0.0,0 STARLINK-4085,1 53262U 22086W   22315.23102014 -.00000773  00000-0 -30457-4 0  9994,2 53262  53.2169 246.0244 0001582  69.6927 290.4235 15.08834089 17721,6917.898,95.438,540.8580000000002,538.669,0.0
53262.0,STARLINK-4085,PAYLOAD,2022-11-12 11:44:59,15.08840175,0.0001517,53.2168,240.3751,63.917,296.1978,0.00026656,3.957e-05,0.0,0 STARLINK-4085,1 53262U 22086W   22316.48958117  .00003957  00000-0  26656-3 0  9995,2 53262  53.2168 240.3751 0001517  63.9170 296.1978 15.08840175 17736,6917.88,95.438,540.794,538.695,0.0
53262.0,STARLINK-4085,PAYLOAD,2022-11-12 18:06:32,15.08845838,0.0001476,53.2164,239.1828,64.9852,295.1293,0.00027866,4.15e-05,0.0,0 STARLINK-4085,1 53262U 22086W   22316.75453888  .00004150  00000-0  27866-3 0  9990,2 53262  53.2164 239.1828 0001476  64.9852 295.1293 15.08845838 17959,6917.863,95.437,540.749,538.706,0.0
53262.0,STARLINK-4085,PAYLOAD,2022-11-13 06:49:37,15.0884004,0.0001565999999999,53.2163,236.8045,61.8405,298.2745,8.9669e-05,1.139e-05,0.0,0 STARLINK-4085,1 53262U 22086W   22317.28446101  .00001139  00000-0  89669-4 0  9993,2 53262  53.2163 236.8045 0001566  61.8405 298.2745 15.08840040 18039,6917.88,95.438,540.8290000000002,538.6619999999998,0.0
53262.0,STARLINK-4085,PAYLOAD,2022-11-14 06:40:24,15.08836408,0.0001665,53.2158,232.3445,64.0578,296.0585,6.670000000000001e-05,7.74e-06,0.0,0 STARLINK-4085,1 53262U 22086W   22318.27806712  .00000774  00000-0  66700-4 0  9996,2 53262  53.2158 232.3445 0001665  64.0578 296.0585 15.08836408 18002,6917.891,95.438,540.908,538.605,0.0
53262.0,STARLINK-4085,PAYLOAD,2022-11-14 11:26:34,15.08842629,0.0001544,53.2159,231.4522,63.854,296.2611,0.00017182,2.448e-05,0.0,0 STARLINK-4085,1 53262U 22086W   22318.47678464  .00002448  00000-0  17182-3 0  9998,2 53262  53.2159 231.4522 0001544  63.8540 296.2611 15.08842629 18218,6917.871999999999,95.437,540.805,538.669,0.0
53262.0,STARLINK-4085,PAYLOAD,2022-11-15 11:17:21,15.08838138,0.0001641,53.2153,226.9917,65.6041,294.5122,0.00019309,2.786e-05,0.0,0 STARLINK-4085,1 53262U 22086W   22319.47039044  .00002786  00000-0  19309-3 0  9992,2 53262  53.2153 226.9917 0001641  65.6041 294.5122 15.08838138 18367,6917.886,95.438,540.886,538.616,0.0
53262.0,STARLINK-4085,PAYLOAD,2022-11-15 20:49:40,15.08837961,0.0001661,53.2152,225.2075,66.2301,293.8865,0.00011691,1.573e-05,0.0,0 STARLINK-4085,1 53262U 22086W   22319.86783092  .00001573  00000-0  11691-3 0  9993,2 53262  53.2152 225.2075 0001661  66.2301 293.8865 15.08837961 18427,6917.887,95.438,540.901,538.6030000000002,0.0
53262.0,STARLINK-4085,PAYLOAD,2022-11-16 01:35:50,15.08831609,0.0001529,53.2156,224.3152,65.9663,294.1489,-2.2304e-06,-3.23e-06,0.0,0 STARLINK-4085,1 53262U 22086W   22320.06655398 -.00000323  00000-0 -22304-5 0  9993,2 53262  53.2156 224.3152 0001529  65.9663 294.1489 15.08831609 18279,6917.906,95.438,540.8290000000002,538.7130000000002,0.0
53262.0,STARLINK-4085,PAYLOAD,2022-11-16 11:08:09,15.08830131,0.0001554,53.2162,222.5314,63.8172,296.298,-1.0514e-05,-4.55e-06,0.0,0 STARLINK-4085,1 53262U 22086W   22320.46399852 -.00000455  00000-0 -10514-4 0  9992,2 53262  53.2162 222.5314 0001554  63.8172 296.2980 15.08830131 18511,6917.911,95.438,540.851,538.701,0.0
53262.0,STARLINK-4085,PAYLOAD,2022-11-17 01:26:36,15.08845818,0.0001605,53.2169,219.8549,67.5775,292.5387,0.00013668,1.888e-05,0.0,0 STARLINK-4085,1 53262U 22086W   22321.06014923  .00001888  00000-0  13668-3 0  9993,2 53262  53.2169 219.8549 0001605  67.5775 292.5387 15.08845818 18422,6917.863,95.437,540.8380000000002,538.617,0.0
53262.0,STARLINK-4085,PAYLOAD,2022-11-17 10:58:55,15.08851321,0.0001624,53.2162,218.071,65.0383,295.0777,0.00024342,3.589e-05,0.0,0 STARLINK-4085,1 53262U 22086W   22321.45758772  .00003589  00000-0  24342-3 0  9994,2 53262  53.2162 218.0710 0001624  65.0383 295.0777 15.08851321 18668,6917.846,95.437,540.8340000000002,538.587,0.0
53262.0,STARLINK-4085,PAYLOAD,2022-11-17 20:31:14,15.08840267,0.0001593,53.216,216.2869,64.5097,295.6059,0.00011458,1.536e-05,0.0,0 STARLINK-4085,1 53262U 22086W   22321.85503369  .00001536  00000-0  11458-3 0  9992,2 53262  53.2160 216.2869 0001593  64.5097 295.6059 15.08840267 18725,6917.88,95.438,540.847,538.643,0.0
53262.0,STARLINK-4085,PAYLOAD,2022-11-18 02:52:46,15.08852949,0.0001647,53.216,215.0971,64.8043,295.312,1.2925e-05,-8.2e-07,0.0,0 STARLINK-4085,1 53262U 22086W   22322.11998675 -.00000082  00000-0  12925-4 0  9997,2 53262  53.2160 215.0971 0001647  64.8043 295.3120 15.08852949 18580,6917.840999999999,95.437,540.845,538.566,0.0
53262.0,STARLINK-4085,PAYLOAD,2022-11-19 02:43:34,15.08847,0.0001649,53.2169,210.6372,68.5441,291.5727,3.5911e-05,2.84e-06,0.0,0 STARLINK-4085,1 53262U 22086W   22323.11359007  .00000284  00000-0  35911-4 0  9991,2 53262  53.2169 210.6372 0001649  68.5441 291.5727 15.08847000 18730,6917.859,95.437,540.865,538.5830000000002,0.0
53262.0,STARLINK-4085,PAYLOAD,2022-11-19 15:26:39,15.08841774,0.0001568,53.217,208.2593,67.2224,292.8934,7.8327e-05,9.59e-06,0.0,0 STARLINK-4085,1 53262U 22086W   22323.64351087  .00000959  00000-0  78327-4 0  9996,2 53262  53.2170 208.2593 0001568  67.2224 292.8934 15.08841774 18999,6917.875,95.437,540.825,538.655,0.0
53262.0,STARLINK-4085,PAYLOAD,2022-11-20 02:34:21,15.08839556,0.0001925,53.2169,206.1776,59.5191,300.5992,1.1025e-05,-1.13e-06,0.0,0 STARLINK-4085,1 53262U 22086W   22324.10719548 -.00000113  00000-0  11025-4 0  9993,2 53262  53.2169 206.1776 0001925  59.5191 300.5992 15.08839556 18885,6917.882,95.438,541.078,538.415,0.0
53262.0,STARLINK-4085,PAYLOAD,2022-11-20 08:55:54,15.08838631,0.0002089,53.2168,204.988,54.7861,305.3327,-3.7961e-05,-8.92e-06,0.0,0 STARLINK-4085,1 53262U 22086W   22324.37215591 -.00000892  00000-0 -37961-4 0  9993,2 53262  53.2168 204.9880 0002089  54.7861 305.3327 15.08838631 19103,6917.885,95.438,541.195,538.304,0.0
53262.0,STARLINK-4085,PAYLOAD,2022-11-20 20:03:36,15.08836278,0.0001384,53.2158,202.9068,60.5491,299.564,-8.8763e-06,-4.29e-06,0.0,0 STARLINK-4085,1 53262U 22086W   22324.83583604 -.00000429  00000-0 -88763-5 0  9990,2 53262  53.2158 202.9068 0001384  60.5491 299.5640 15.08836278 19173,6917.892,95.438,540.714,538.799,0.0
53262.0,STARLINK-4085,PAYLOAD,2022-11-21 02:25:08,15.08842066,0.0001419999999999,53.216,201.7165,61.1603,298.9532,3.2112e-05,2.23e-06,0.0,0 STARLINK-4085,1 53262U 22086W   22325.10079128  .00000223  00000-0  32112-4 0  9998,2 53262  53.2160 201.7165 0001420  61.1603 298.9532 15.08842066 19214,6917.874,95.437,540.721,538.757,0.0
53262.0,STARLINK-4085,PAYLOAD,2022-11-21 19:54:22,15.08911941,0.0001848,53.2162,198.4448,55.6824,304.4343,-0.0010403,-0.00016839,0.0,0 STARLINK-4085,1 53262U 22086W   22325.82942142 -.00016839  00000-0 -10403-2 0  9991,2 53262  53.2162 198.4448 0001848  55.6824 304.4343 15.08911941 19323,6917.661,95.433,540.804,538.247,0.0
53262.0,STARLINK-4085,PAYLOAD,2022-11-22 02:15:54,15.08885136,0.0001509,53.2162,197.2553,64.7102,295.4046,-0.00064634,-0.00010573,0.0,0 STARLINK-4085,1 53262U 22086W   22326.09437960 -.00010573  00000-0 -64634-3 0  9993,2 53262  53.2162 197.2553 0001509  64.7102 295.4046 15.08885136 19180,6917.7419999999975,95.435,540.651,538.564,0.0
53262.0,STARLINK-4085,PAYLOAD,2022-11-22 08:37:28,15.08836219,0.0001401,53.2163,196.066,61.8504,298.2629,0.00010429,1.372e-05,0.0,0 STARLINK-4085,1 53262U 22086W   22326.35935574  .00001372  00000-0  10429-3 0  9994,2 53262  53.2163 196.0660 0001401  61.8504 298.2629 15.08836219 19223,6917.892,95.438,540.726,538.788,0.0
